[{"OBJECT_NAME":"STARLINK-4492","OBJECT_ID":"2022-097Y","EPOCH":"2026-03-09T12:15:42.662016","MEAN_MOTION":15.08834705,"ECCENTRICITY":0.00013159,"INCLINATION":53.2173,"RA_OF_ASC_NODE":114.924,"ARG_OF_PERICENTER":91.8187,"MEAN_ANOMALY":268.2956,"EPHEMERIS_TYPE":0,"CLASSIFICATION_TYPE":"U","NORAD_CAT_ID":53410,"ELEMENT_SET_NO":999,"REV_AT_EPOCH":19862,"BSTAR":-3.7538876e-5,"MEAN_MOTION_DOT":-8.85e-6,"MEAN_MOTION_DDOT":0},{"OBJECT_NAME":"NANOFF A","OBJECT_ID":"2023-185T","EPOCH":"2026-03-09T23:34:34.415328","MEAN_MOTION":15.11542977,"ECCENTRICITY":0.00086783,"INCLINATION":97.5359,"RA_OF_ASC_NODE":137.8345,"ARG_OF_PERICENTER":292.8968,"MEAN_ANOMALY":67.1346,"EPHEMERIS_TYPE":0,"CLASSIFICATION_TYPE":"U","NORAD_CAT_ID":58810,"ELEMENT_SET_NO":999,"REV_AT_EPOCH":11805,"BSTAR":0.00027314844,"MEAN_MOTION_DOT":4.57e-5,"MEAN_MOTION_DDOT":0}]
